{
  "norad_id": 55590,
  "name": "STARLINK-5762",
  "history": [
    {
      "epoch": "2026-03-28T18:28:43.181472Z",
      "apogee_km": 487.0425386108136,
      "perigee_km": 484.075362851313,
      "latitude_deg": -5.501156800832109e-06,
      "longitude_deg": 153.8441437953932,
      "height_km": 485.42614570100983,
      "semi_major_axis_km": 6863.695950731063,
      "eccentricity": 0.00021615,
      "inclination_deg": 43.001,
      "raan_deg": 257.2097,
      "arg_perigee_deg": 266.5328,
      "mean_anomaly_deg": 93.5276,
      "mean_motion_rev_day": 15.26742189
    },
    {
      "epoch": "2026-03-29T03:53:57.468480Z",
      "apogee_km": 487.1536036360112,
      "perigee_km": 483.93728204329545,
      "latitude_deg": 3.546809522858103e-06,
      "longitude_deg": 9.931432493711478,
      "height_km": 485.60218471135386,
      "semi_major_axis_km": 6863.682442839653,
      "eccentricity": 0.0002343,
      "inclination_deg": 43.0015,
      "raan_deg": 254.9934,
      "arg_perigee_deg": 260.0043,
      "mean_anomaly_deg": 100.0544,
      "mean_motion_rev_day": 15.26746696
    },
    {
      "epoch": "2026-03-30T03:27:05.289408Z",
      "apogee_km": 486.48175061206166,
      "perigee_km": 484.6697304485606,
      "latitude_deg": 5.836733817364144e-06,
      "longitude_deg": 10.146494973522964,
      "height_km": 485.17593280888497,
      "semi_major_axis_km": 6863.712740530311,
      "eccentricity": 0.000132,
      "inclination_deg": 43.0015,
      "raan_deg": 249.4583,
      "arg_perigee_deg": 281.2463,
      "mean_anomaly_deg": 78.824,
      "mean_motion_rev_day": 15.26736587
    },
    {
      "epoch": "2026-03-30T11:18:07.604640Z",
      "apogee_km": 486.4424414227269,
      "perigee_km": 484.6816280723524,
      "latitude_deg": -2.1267799236227786e-05,
      "longitude_deg": -109.78059480860564,
      "height_km": 485.16140455378047,
      "semi_major_axis_km": 6863.699034747539,
      "eccentricity": 0.00012827,
      "inclination_deg": 43.0018,
      "raan_deg": 247.6133,
      "arg_perigee_deg": 281.6327,
      "mean_anomaly_deg": 78.438,
      "mean_motion_rev_day": 15.2674116
    },
    {
      "epoch": "2026-03-30T17:34:57.742464Z",
      "apogee_km": 486.4420677070302,
      "perigee_km": 484.68303878552433,
      "latitude_deg": -5.62683684741744e-05,
      "longitude_deg": 154.27562574841764,
      "height_km": 485.1523151427643,
      "semi_major_axis_km": 6863.699553246277,
      "eccentricity": 0.00012814,
      "inclination_deg": 43.0028,
      "raan_deg": 246.1364,
      "arg_perigee_deg": 282.292,
      "mean_anomaly_deg": 77.7787,
      "mean_motion_rev_day": 15.26740987
    },
    {
      "epoch": "2026-03-31T17:08:04.962912Z",
      "apogee_km": 486.4903722566105,
      "perigee_km": 484.6275651707019,
      "latitude_deg": -5.0735385962626254e-05,
      "longitude_deg": 154.4933012561176,
      "height_km": 485.18937146906774,
      "semi_major_axis_km": 6863.695968713656,
      "eccentricity": 0.0001357,
      "inclination_deg": 43.0028,
      "raan_deg": 240.6014,
      "arg_perigee_deg": 279.0602,
      "mean_anomaly_deg": 81.0095,
      "mean_motion_rev_day": 15.26742183
    },
    {
      "epoch": "2026-04-01T16:41:12.249888Z",
      "apogee_km": 486.49350201279594,
      "perigee_km": 484.6389294039109,
      "latitude_deg": -1.54239896589036e-05,
      "longitude_deg": 154.71063050616993,
      "height_km": 485.2045288520471,
      "semi_major_axis_km": 6863.703215708353,
      "eccentricity": 0.0001351,
      "inclination_deg": 43.0025,
      "raan_deg": 235.0663,
      "arg_perigee_deg": 278.6035,
      "mean_anomaly_deg": 81.4663,
      "mean_motion_rev_day": 15.26739765
    },
    {
      "epoch": "2026-04-02T17:48:33.120864Z",
      "apogee_km": 486.87497066657215,
      "perigee_km": 484.3393662958515,
      "latitude_deg": -4.560460563932445e-05,
      "longitude_deg": 130.93799387535523,
      "height_km": 485.3937005112391,
      "semi_major_axis_km": 6863.744168481211,
      "eccentricity": 0.00018471,
      "inclination_deg": 43.0026,
      "raan_deg": 229.1624,
      "arg_perigee_deg": 269.5889,
      "mean_anomaly_deg": 90.475,
      "mean_motion_rev_day": 15.26726101
    },
    {
      "epoch": "2026-04-03T17:21:40.518432Z",
      "apogee_km": 486.51972603591094,
      "perigee_km": 484.63632263323416,
      "latitude_deg": -3.785876904986664e-05,
      "longitude_deg": 131.1544305371849,
      "height_km": 485.2834749641436,
      "semi_major_axis_km": 6863.715024334572,
      "eccentricity": 0.0001372,
      "inclination_deg": 43.003,
      "raan_deg": 223.6269,
      "arg_perigee_deg": 274.364,
      "mean_anomaly_deg": 85.7054,
      "mean_motion_rev_day": 15.26735825
    },
    {
      "epoch": "2026-04-04T16:54:47.487456Z",
      "apogee_km": 486.5275034719825,
      "perigee_km": 484.5535098210703,
      "latitude_deg": 7.849205982243634e-06,
      "longitude_deg": 131.37529735139805,
      "height_km": 485.4425268327265,
      "semi_major_axis_km": 6863.677506646526,
      "eccentricity": 0.0001438,
      "inclination_deg": 43.0019,
      "raan_deg": 218.094,
      "arg_perigee_deg": 262.7229,
      "mean_anomaly_deg": 97.3459,
      "mean_motion_rev_day": 15.26748343
    },
    {
      "epoch": "2026-04-05T14:53:41.611200Z",
      "apogee_km": 487.25216857408304,
      "perigee_km": 483.81484238493886,
      "latitude_deg": -3.3525424210817124e-05,
      "longitude_deg": 155.5771798537964,
      "height_km": 485.1009069928663,
      "semi_major_axis_km": 6863.67050547951,
      "eccentricity": 0.0002504,
      "inclination_deg": 43.0012,
      "raan_deg": 212.9242,
      "arg_perigee_deg": 277.0307,
      "mean_anomaly_deg": 83.0259,
      "mean_motion_rev_day": 15.26750679
    },
    {
      "epoch": "2026-04-05T14:53:41.612064Z",
      "apogee_km": 487.2518940272612,
      "perigee_km": 483.8151169317589,
      "latitude_deg": -3.664716556729662e-05,
      "longitude_deg": 155.57717291491826,
      "height_km": 485.10094059305317,
      "semi_major_axis_km": 6863.67050547951,
      "eccentricity": 0.00025036,
      "inclination_deg": 43.0012,
      "raan_deg": 212.9242,
      "arg_perigee_deg": 277.0307,
      "mean_anomaly_deg": 83.0259,
      "mean_motion_rev_day": 15.26750679
    },
    {
      "epoch": "2026-04-06T00:18:56.319840Z",
      "apogee_km": 486.52791014708873,
      "perigee_km": 484.5386812219931,
      "latitude_deg": 3.370842264087562e-05,
      "longitude_deg": 11.666368287929409,
      "height_km": 485.3661378962435,
      "semi_major_axis_km": 6863.670295684541,
      "eccentricity": 0.00014491,
      "inclination_deg": 43.0001,
      "raan_deg": 210.7115,
      "arg_perigee_deg": 266.7712,
      "mean_anomaly_deg": 93.2974,
      "mean_motion_rev_day": 15.26750749
    },
    {
      "epoch": "2026-04-07T13:59:55.601952Z",
      "apogee_km": 486.56280949585016,
      "perigee_km": 484.5503745346705,
      "latitude_deg": 1.7384053115320236e-05,
      "longitude_deg": 156.01674660054957,
      "height_km": 485.40482547808193,
      "semi_major_axis_km": 6863.69359201526,
      "eccentricity": 0.0001466,
      "inclination_deg": 43.0011,
      "raan_deg": 201.8565,
      "arg_perigee_deg": 265.9374,
      "mean_anomaly_deg": 94.131,
      "mean_motion_rev_day": 15.26742976
    },
    {
      "epoch": "2026-04-07T13:59:55.602816Z",
      "apogee_km": 486.56301540665663,
      "perigee_km": 484.5501686238631,
      "latitude_deg": 1.9736536195200025e-05,
      "longitude_deg": 156.01684549938972,
      "height_km": 485.404840064319,
      "semi_major_axis_km": 6863.69359201526,
      "eccentricity": 0.00014663,
      "inclination_deg": 43.0011,
      "raan_deg": 201.8566,
      "arg_perigee_deg": 265.9374,
      "mean_anomaly_deg": 94.131,
      "mean_motion_rev_day": 15.26742976
    },
    {
      "epoch": "2026-04-08T13:33:02.825856Z",
      "apogee_km": 486.5840986980211,
      "perigee_km": 484.5303441130918,
      "latitude_deg": -2.3705391741174937e-05,
      "longitude_deg": 156.23425367529924,
      "height_km": 485.25773108715197,
      "semi_major_axis_km": 6863.694221405556,
      "eccentricity": 0.00014961,
      "inclination_deg": 43.0024,
      "raan_deg": 196.3214,
      "arg_perigee_deg": 274.2797,
      "mean_anomaly_deg": 85.7883,
      "mean_motion_rev_day": 15.26742766
    },
    {
      "epoch": "2026-04-09T13:06:10.008288Z",
      "apogee_km": 486.42863928644147,
      "perigee_km": 484.6926728752651,
      "latitude_deg": -2.822443542979368e-05,
      "longitude_deg": 156.45187305382092,
      "height_km": 485.33060247550304,
      "semi_major_axis_km": 6863.697656080853,
      "eccentricity": 0.00012646,
      "inclination_deg": 43.0023,
      "raan_deg": 190.7862,
      "arg_perigee_deg": 270.4611,
      "mean_anomaly_deg": 89.6095,
      "mean_motion_rev_day": 15.2674162
    },
    {
      "epoch": "2026-04-09T22:31:24.780864Z",
      "apogee_km": 486.4305260531546,
      "perigee_km": 484.6830296173184,
      "latitude_deg": 3.760165263413217e-05,
      "longitude_deg": 12.539692423190013,
      "height_km": 485.3287283917188,
      "semi_major_axis_km": 6863.693777835237,
      "eccentricity": 0.0001273,
      "inclination_deg": 43.0026,
      "raan_deg": 188.5724,
      "arg_perigee_deg": 270.3288,
      "mean_anomaly_deg": 89.7418,
      "mean_motion_rev_day": 15.26742914
    },
    {
      "epoch": "2026-04-11T13:46:36.838272Z",
      "apogee_km": 486.43813366294853,
      "perigee_km": 484.6906352904607,
      "latitude_deg": -3.4142520527358236e-05,
      "longitude_deg": 132.90299548916903,
      "height_km": 485.3616061120319,
      "semi_major_axis_km": 6863.701384476704,
      "eccentricity": 0.0001273,
      "inclination_deg": 43.0029,
      "raan_deg": 179.3481,
      "arg_perigee_deg": 268.674,
      "mean_anomaly_deg": 91.3965,
      "mean_motion_rev_day": 15.26740376
    }
  ]
}